$$SOE
2461295.500000000, A.D. 2026-Sep-12 00:00:00.0000, -2.960959772658262E+08, -4.774746167646030E+07, -1.837157363115045E+07,
2461302.500000000, A.D. 2026-Sep-19 00:00:00.0000, -2.949125465075770E+08, -5.947821226556554E+07, -2.262253514249752E+07,
2461309.500000000, A.D. 2026-Sep-26 00:00:00.0000, -2.932078492857456E+08, -7.110383737838233E+07, -2.683352198429117E+07,
2461316.500000000, A.D. 2026-Oct-03 00:00:00.0000, -2.909910169941968E+08, -8.260527521303637E+07, -3.099765012183143E+07,
2461323.500000000, A.D. 2026-Oct-10 00:00:00.0000, -2.882717920618231E+08, -9.396410645480402E+07, -3.510827075405301E+07,
2461330.500000000, A.D. 2026-Oct-17 00:00:00.0000, -2.850604830087835E+08, -1.051625536253362E+08, -3.915896993802455E+07,
2461337.500000000, A.D. 2026-Oct-24 00:00:00.0000, -2.813679220603088E+08, -1.161834784748698E+08, -4.314356748546296E+07,
2461344.500000000, A.D. 2026-Oct-31 00:00:00.0000, -2.772054252076209E+08, -1.270103777677599E+08, -4.705611524838169E+07,
2461351.500000000, A.D. 2026-Nov-07 00:00:00.0000, -2.725847543453379E+08, -1.376273776506423E+08, -5.089089491414814E+07,
2461358.500000000, A.D. 2026-Nov-14 00:00:00.0000, -2.675180812353895E+08, -1.480192259586040E+08, -5.464241534345445E+07,
2461365.500000000, A.D. 2026-Nov-21 00:00:00.0000, -2.620179550445172E+08, -1.581712820007994E+08, -5.830540930928659E+07,
2461372.500000000, A.D. 2026-Nov-28 00:00:00.0000, -2.560972743784598E+08, -1.680695070407827E+08, -6.187482986509217E+07,
2461379.500000000, A.D. 2026-Dec-05 00:00:00.0000, -2.497692601144316E+08, -1.777004563186886E+08, -6.534584679702548E+07,
2461386.500000000, A.D. 2026-Dec-12 00:00:00.0000, -2.430474287816602E+08, -1.870512696737459E+08, -6.871384298360026E+07,
2461393.500000000, A.D. 2026-Dec-19 00:00:00.0000, -2.359455682820214E+08, -1.961096609103417E+08, -7.197441054311758E+07,
2461400.500000000, A.D. 2026-Dec-26 00:00:00.0000, -2.284777159908873E+08, -2.048639069120832E+08, -7.512334687413138E+07,
2461407.500000000, A.D. 2027-Jan-02 00:00:00.0000, -2.206581388593763E+08, -2.133028368219943E+08, -7.815665067402658E+07,
2461414.500000000, A.D. 2027-Jan-09 00:00:00.0000, -2.125013153015911E+08, -2.214158213844964E+08, -8.107051798658450E+07,
2461421.500000000, A.D. 2027-Jan-16 00:00:00.0000, -2.040219187338507E+08, -2.291927625421551E+08, -8.386133831855220E+07,
2461428.500000000, A.D. 2027-Jan-23 00:00:00.0000, -1.952348026218119E+08, -2.366240834164349E+08, -8.652569086534171E+07,
2461435.500000000, A.D. 2027-Jan-30 00:00:00.0000, -1.861549867499303E+08, -2.437007188004570E+08, -8.906034089604679E+07,
2461442.500000000, A.D. 2027-Feb-06 00:00:00.0000, -1.767976441926264E+08, -2.504141058956747E+08, -9.146223633539353E+07,
2461449.500000000, A.D. 2027-Feb-13 00:00:00.0000, -1.671780893540882E+08, -2.567561741360571E+08, -9.372850442450157E+07,
2461456.500000000, A.D. 2027-Feb-20 00:00:00.0000, -1.573117693489577E+08, -2.627193349452505E+08, -9.585644832889253E+07,
2461463.500000000, A.D. 2027-Feb-27 00:00:00.0000, -1.472142572390080E+08, -2.682964746886832E+08, -9.784354410256749E+07,
2461470.500000000, A.D. 2027-Mar-06 00:00:00.0000, -1.369012440231188E+08, -2.734809489401754E+08, -9.968743814282753E+07,
2461477.500000000, A.D. 2027-Mar-13 00:00:00.0000, -1.263885308959838E+08, -2.782665760471036E+08, -1.013859448304703E+08,
2461484.500000000, A.D. 2027-Mar-20 00:00:00.0000, -1.156920228159753E+08, -2.826476308578526E+08, -1.029370443250332E+08,
2461491.500000000, A.D. 2027-Mar-27 00:00:00.0000, -1.048277230898296E+08, -2.866188391906382E+08, -1.043388805854311E+08,
2461498.500000000, A.D. 2027-Apr-03 00:00:00.0000, -9.381172868476483E+07, -2.901753731230763E+08, -1.055897596502920E+08,
2461505.500000000, A.D. 2027-Apr-10 00:00:00.0000, -8.266022612731895E+07, -2.933128471099345E+08, -1.066881481968562E+08,
2461512.500000000, A.D. 2027-Apr-17 00:00:00.0000, -7.138948789407189E+07, -2.960273149696079E+08, -1.076326723959553E+08,
2461519.500000000, A.D. 2027-Apr-24 00:00:00.0000, -6.001586914523824E+07, -2.983152678217022E+08, -1.084221170854511E+08,
2461526.500000000, A.D. 2027-May-01 00:00:00.0000, -4.855580443067487E+07, -3.001736329633582E+08, -1.090554252930222E+08,
2461533.500000000, A.D. 2027-May-08 00:00:00.0000, -3.702580398812408E+07, -3.015997729489167E+08, -1.095316980788040E+08,
2461540.500000000, A.D. 2027-May-15 00:00:00.0000, -2.544245105670369E+07, -3.025914839303640E+08, -1.098501944850752E+08,
2461547.500000000, A.D. 2027-May-22 00:00:00.0000, -1.382240169399861E+07, -3.031469958584849E+08, -1.100103316629665E+08,
2461554.500000000, A.D. 2027-May-29 00:00:00.0000, -2.182383663813689E+06, -3.032649760222872E+08, -1.100116856070313E+08,
2461561.500000000, A.D. 2027-Jun-05 00:00:00.0000, 9.460806565946832E+06, -3.029445328062533E+08, -1.098539923276414E+08,
2461568.500000000, A.D. 2027-Jun-12 00:00:00.0000, 2.109030678239803E+07, -3.021852192426821E+08, -1.095371492453357E+08,
2461575.500000000, A.D. 2027-Jun-19 00:00:00.0000, 3.268919168840452E+07, -3.009870373000399E+08, -1.090612168546982E+08,
2461582.500000000, A.D. 2027-Jun-26 00:00:00.0000, 4.424047562139411E+07, -2.993504431721079E+08, -1.084264207043813E+08,
2461589.500000000, A.D. 2027-Jul-03 00:00:00.0000, 5.572711554142495E+07, -2.972763535598245E+08, -1.076331537018338E+08,
2461596.500000000, A.D. 2027-Jul-10 00:00:00.0000, 6.713201440858182E+07, -2.947661529330066E+08, -1.066819787401149E+08,
2461603.500000000, A.D. 2027-Jul-17 00:00:00.0000, 7.843802507576533E+07, -2.918217018039354E+08, -1.055736316479924E+08,
2461610.500000000, A.D. 2027-Jul-24 00:00:00.0000, 8.962795494824933E+07, -2.884453460687956E+08, -1.043090244798968E+08,
2461617.500000000, A.D. 2027-Jul-31 00:00:00.0000, 1.006845719184475E+08, -2.846399271743480E+08, -1.028892491628515E+08,
2461624.500000000, A.D. 2027-Aug-07 00:00:00.0000, 1.115906114733687E+08, -2.804087919476510E+08, -1.013155813855624E+08,
2461631.500000000, A.D. 2027-Aug-14 00:00:00.0000, 1.223287827737017E+08, -2.757558023250637E+08, -9.958948453423211E+07,
2461638.500000000, A.D. 2027-Aug-21 00:00:00.0000, 1.328817744267860E+08, -2.706853483192096E+08, -9.771261399832270E+07,
2461645.500000000, A.D. 2027-Aug-28 00:00:00.0000, 1.432322634948405E+08, -2.652023629907564E+08, -9.568682205298822E+07,
2461652.500000000, A.D. 2027-Sep-04 00:00:00.0000, 1.533629266718869E+08, -2.593123368896442E+08, -9.351416299415387E+07,
2461659.500000000, A.D. 2027-Sep-11 00:00:00.0000, 1.632564523518671E+08, -2.530213325859958E+08, -9.119689843713610E+07,
2461666.500000000, A.D. 2027-Sep-18 00:00:00.0000, 1.728955538435161E+08, -2.463359998896888E+08, -8.873750282483383E+07,
2461673.500000000, A.D. 2027-Sep-25 00:00:00.0000, 1.822629840881892E+08, -2.392635917750224E+08, -8.613866914992245E+07,
2461680.500000000, A.D. 2027-Oct-02 00:00:00.0000, 1.913415520869797E+08, -2.318119809113160E+08, -8.340331486894442E+07,
2461687.500000000, A.D. 2027-Oct-09 00:00:00.0000, 2.001141411929675E+08, -2.239896767198975E+08, -8.053458797902581E+07,
2461694.500000000, A.D. 2027-Oct-16 00:00:00.0000, 2.085637294669891E+08, -2.158058429119523E+08, -7.753587322985692E+07,
2461701.500000000, A.D. 2027-Oct-23 00:00:00.0000, 2.166734124975671E+08, -2.072703153954837E+08, -7.441079845321336E+07,
2461708.500000000, A.D. 2027-Oct-30 00:00:00.0000, 2.244264292067644E+08, -1.983936198123138E+08, -7.116324094994931E+07,
2461715.500000000, A.D. 2027-Nov-06 00:00:00.0000, 2.318061896241776E+08, -1.891869874371099E+08, -6.779733368546870E+07,
2461722.500000000, A.D. 2027-Nov-13 00:00:00.0000, 2.387963027818595E+08, -1.796623713532539E+08, -6.431747122143886E+07,
2461729.500000000, A.D. 2027-Nov-20 00:00:00.0000, 2.453806077658675E+08, -1.698324649029390E+08, -6.072831575975139E+07,
2461736.500000000, A.D. 2027-Nov-27 00:00:00.0000, 2.515432096755311E+08, -1.597107192388904E+08, -5.703480312999205E+07,
2461743.500000000, A.D. 2027-Dec-04 00:00:00.0000, 2.572685185926496E+08, -1.493113588397744E+08, -5.324214837730653E+07,
2461750.500000000, A.D. 2027-Dec-11 00:00:00.0000, 2.625412911166226E+08, -1.386493957068737E+08, -4.935585088383528E+07,
2461757.500000000, A.D. 2027-Dec-18 00:00:00.0000, 2.673466748217535E+08, -1.277406423030473E+08, -4.538169896795659E+07,
2461764.500000000, A.D. 2027-Dec-25 00:00:00.0000, 2.716702558477274E+08, -1.166017229185546E+08, -4.132577385668788E+07,
2461771.500000000, A.D. 2028-Jan-01 00:00:00.0000, 2.754981097124506E+08, -1.052500830954220E+08, -3.719445291150797E+07,
$$EOE